NORAD_CAT_ID,OBJECT_NAME,OBJECT_TYPE,EPOCH,MEAN_MOTION,ECCENTRICITY,INCLINATION,RA_OF_ASC_NODE,ARG_OF_PERICENTER,MEAN_ANOMALY,BSTAR,MEAN_MOTION_DOT,MEAN_MOTION_DDOT,TLE_LINE0,TLE_LINE1,TLE_LINE2,SEMIMAJOR_AXIS,PERIOD,APOGEE,PERIGEE,DECAYED
52133.0,STARLINK-3707,PAYLOAD,2024-08-06 04:56:41,15.08817788,0.0001624,53.2169,155.0135,79.6602,280.4573,-0.00019798,-3.436e-05,0.0,0 STARLINK-3707,1 52133U 22029AX  24219.20603676 -.00003436  00000-0 -19798-3 0  9992,2 52133  53.2169 155.0135 0001624  79.6602 280.4573 15.08817788133307,6917.948,95.439,540.937,538.69,0.0
52133.0,STARLINK-3707,PAYLOAD,2024-08-06 12:53:36,15.0883202,0.0001507,53.2167,153.529,85.3492,274.7673,-3.4483e-05,-8.37e-06,0.0,0 STARLINK-3707,1 52133U 22029AX  24219.53723225 -.00000837  00000-0 -34483-4 0  9992,2 52133  53.2167 153.5290 0001507  85.3492 274.7673 15.08832020133359,6917.905,95.438,540.812,538.727,0.0
52133.0,STARLINK-3707,PAYLOAD,2024-08-07 01:36:41,15.08846701,0.0001515,53.2158,151.1489,74.081,286.0349,0.00014504,2.021e-05,0.0,0 STARLINK-3707,1 52133U 22029AX  24220.06714636  .00002021  00000-0  14504-3 0  9994,2 52133  53.2158 151.1489 0001515  74.0810 286.0349 15.08846701133437,6917.86,95.437,540.773,538.677,0.0
52133.0,STARLINK-3707,PAYLOAD,2024-08-08 04:38:14,15.08867016,0.0001607,53.2153,146.0887,99.8766,260.2407,0.00051942,7.994e-05,0.0,0 STARLINK-3707,1 52133U 22029AX  24221.19321871  .00007994  00000-0  51942-3 0  9995,2 52133  53.2153 146.0887 0001607  99.8766 260.2407 15.08867016133604,6917.798,95.436,540.775,538.551,0.0
52133.0,STARLINK-3707,PAYLOAD,2024-08-08 22:07:28,15.0885406,0.0001715,53.2154,142.8177,105.3748,254.7434,0.00042521,6.488e-05,0.0,0 STARLINK-3707,1 52133U 22029AX  24221.92185764  .00006488  00000-0  42521-3 0  9995,2 52133  53.2154 142.8177 0001715 105.3748 254.7434 15.08854060133719,6917.837,95.437,540.889,538.516,0.0
52133.0,STARLINK-3707,PAYLOAD,2024-08-09 04:29:01,15.08863232,0.0001508,53.215,141.632,86.1204,273.9961,0.0015162,0.0002394,0.0,0 STARLINK-3707,1 52133U 22029AX  24222.18681904  .00023940  00000-0  15162-2 0  9993,2 52133  53.2150 141.6320 0001508  86.1204 273.9961 15.08863232133758,6917.809,95.436,540.718,538.631,0.0
52133.0,STARLINK-3707,PAYLOAD,2024-08-09 18:47:30,15.08803243,8.66e-05,53.2155,138.957,84.8446,275.2645,0.00098561,0.00015417,0.0,0 STARLINK-3707,1 52133U 22029AX  24222.78299706  .00015417  00000-0  98561-3 0  9999,2 52133  53.2155 138.9570 0000866  84.8446 275.2645 15.08803243133848,6917.993,95.44,540.457,539.259,0.0
52133.0,STARLINK-3707,PAYLOAD,2024-08-09 21:58:17,15.08797935,7.11e-05,53.2168,138.3572,144.8898,215.2141,0.0004472,6.829e-05,0.0,0 STARLINK-3707,1 52133U 22029AX  24222.91547964  .00006829  00000-0  44720-3 0  9991,2 52133  53.2168 138.3572 0000711 144.8898 215.2141 15.08797935133862,6918.009,95.44,540.366,539.382,0.0
52133.0,STARLINK-3707,PAYLOAD,2024-08-10 01:09:03,15.08804285,0.0001538,53.2154,137.7603,134.002,226.1099,-0.00020782,-3.591e-05,0.0,0 STARLINK-3707,1 52133U 22029AX  24223.04796119 -.00003591  00000-0 -20782-3 0  9991,2 52133  53.2154 137.7603 0001538 134.0020 226.1099 15.08804285133883,6917.99,95.44,540.919,538.791,0.0
52133.0,STARLINK-3707,PAYLOAD,2024-08-10 18:38:17,15.08846754,0.0001056,53.2148,134.4937,106.8519,253.2589,0.00057756,8.918e-05,0.0,0 STARLINK-3707,1 52133U 22029AX  24223.77659451  .00008918  00000-0  57756-3 0  9995,2 52133  53.2148 134.4937 0001056 106.8519 253.2589 15.08846754133999,6917.86,95.437,540.455,538.994,0.0
52133.0,STARLINK-3707,PAYLOAD,2024-08-10 21:49:03,15.08882307,0.000136,53.215,133.8987,121.7468,238.3656,0.0014341,0.00022636,0.0,0 STARLINK-3707,1 52133U 22029AX  24223.90906569  .00022636  00000-0  14341-2 0  9990,2 52133  53.2150 133.8987 0001360 121.7468 238.3656 15.08882307134014,6917.751,95.435,540.557,538.675,0.0
52133.0,STARLINK-3707,PAYLOAD,2024-08-11 00:59:49,15.08890984,0.0001721,53.2156,133.3033,128.9786,231.136,0.0020274,0.00032171,0.0,0 STARLINK-3707,1 52133U 22029AX  24224.04154544  .00032171  00000-0  20274-2 0  9991,2 52133  53.2156 133.3033 0001721 128.9786 231.1360 15.08890984134035,6917.725,95.434,540.78,538.399,0.0
52133.0,STARLINK-3707,PAYLOAD,2024-08-11 10:32:07,15.08892249,0.0001132,53.2159,131.5213,106.9357,253.1759,0.0013384,0.00021107,0.0,0 STARLINK-3707,1 52133U 22029AX  24224.43897203  .00021107  00000-0  13384-2 0  9991,2 52133  53.2159 131.5213 0001132 106.9357 253.1759 15.08892249134092,6917.721,95.434,540.369,538.803,0.0
52133.0,STARLINK-3707,PAYLOAD,2024-08-11 18:29:02,15.08883317,0.000184,53.2161,130.033,84.0584,276.0618,0.00026483,3.934e-05,0.0,0 STARLINK-3707,1 52133U 22029AX  24224.77016909  .00003934  00000-0  26483-3 0  9997,2 52133  53.2161 130.0330 0001840  84.0584 276.0618 15.08883317134143,6917.748,95.435,540.886,538.34,0.0
52133.0,STARLINK-3707,PAYLOAD,2024-08-11 21:39:47,15.08892274,0.0001513,53.2158,129.4371,133.7016,226.4102,0.00026429,3.927e-05,0.0,0 STARLINK-3707,1 52133U 22029AX  24224.90263809  .00003927  00000-0  26429-3 0  9997,2 52133  53.2158 129.4371 0001513 133.7016 226.4102 15.08892274134166,6917.721,95.434,540.632,538.539,0.0
52133.0,STARLINK-3707,PAYLOAD,2024-08-12 04:01:21,15.08829136,0.0001693,53.2153,128.2516,111.4372,248.6801,-0.0018034,-0.00028866,0.0,0 STARLINK-3707,1 52133U 22029AX  24225.16760711 -.00028866  00000-0 -18034-2 0  9993,2 52133  53.2153 128.2516 0001693 111.4372 248.6801 15.08829136134200,6917.914,95.438,540.95,538.607,0.0
52133.0,STARLINK-3707,PAYLOAD,2024-08-12 10:22:54,15.08820767,0.000135,53.2152,127.0629,101.5551,258.5593,-0.00083158,-0.00013491,0.0,0 STARLINK-3707,1 52133U 22029AX  24225.43257312 -.00013491  00000-0 -83158-3 0  9999,2 52133  53.2152 127.0629 0001350 101.5551 258.5593 15.08820767134243,6917.939,95.439,540.738,538.87,0.0
52133.0,STARLINK-3707,PAYLOAD,2024-08-12 18:19:50,15.08850042,0.0001022,53.215,125.5748,85.5109,274.6,0.0012213,0.00019208,0.0,0 STARLINK-3707,1 52133U 22029AX  24225.76377335  .00019208  00000-0  12213-2 0  9996,2 52133  53.2150 125.5748 0001022  85.5109 274.6000 15.08850042134298,6917.85,95.437,540.422,539.008,0.0
52133.0,STARLINK-3707,PAYLOAD,2024-08-12 23:05:59,15.08883166,0.0001432,53.2155,124.6834,92.4273,267.6883,0.0046181,0.0007407,0.0,0 STARLINK-3707,1 52133U 22029AX  24225.96249393  .00074070  00000-0  46181-2 0  9999,2 52133  53.2155 124.6834 0001432  92.4273 267.6883 15.08883166134321,6917.748,95.435,540.604,538.623,0.0
52133.0,STARLINK-3707,PAYLOAD,2024-08-13 02:16:45,15.08901937,0.0001371,53.2152,124.0885,88.5189,271.5961,0.0047559,0.00076352,0.0,0 STARLINK-3707,1 52133U 22029AX  24226.09496949  .00076352  00000-0  47559-2 0  9990,2 52133  53.2152 124.0885 0001371  88.5189 271.5961 15.08901937134342,6917.691,95.434,540.504,538.608,0.0
52133.0,STARLINK-3707,PAYLOAD,2024-08-13 22:56:48,15.08813683,0.0001804,53.2146,120.2227,94.5708,265.5491,0.0016664,0.00026313,0.0,0 STARLINK-3707,1 52133U 22029AX  24226.95611937  .00026313  00000-0  16664-2 0  9996,2 52133  53.2146 120.2227 0001804  94.5708 265.5491 15.08813683134473,6917.961,95.439,541.074,538.578,0.0
52133.0,STARLINK-3707,PAYLOAD,2024-08-14 05:18:21,15.0880725,0.0001915,53.2139,119.0345,92.07,268.0512,0.0010426,0.00016329,0.0,0 STARLINK-3707,1 52133U 22029AX  24227.22108684  .00016329  00000-0  10426-2 0  9993,2 52133  53.2139 119.0345 0001915  92.0700 268.0512 15.08807250134510,6917.98,95.44,541.17,538.521,0.0
52133.0,STARLINK-3707,PAYLOAD,2024-08-14 10:04:31,15.08822278,0.00019,53.2141,118.1412,94.5816,265.5393,0.0015269,0.00024085,0.0,0 STARLINK-3707,1 52133U 22029AX  24227.41980923  .00024085  00000-0  15269-2 0  9996,2 52133  53.2141 118.1412 0001900  94.5816 265.5393 15.08822278134546,6917.935,95.439,541.114,538.485,0.0
52133.0,STARLINK-3707,PAYLOAD,2024-08-14 22:47:36,15.08849277,0.000192,53.2142,115.7651,90.7017,269.4195,0.0015236,0.0002405,0.0,0 STARLINK-3707,1 52133U 22029AX  24227.94973039  .00024050  00000-0  15236-2 0  9990,2 52133  53.2142 115.7651 0001920  90.7017 269.4195 15.08849277134628,6917.852,95.437,541.045,538.389,0.0
52133.0,STARLINK-3707,PAYLOAD,2024-08-15 09:55:18,15.08860749,0.000196,53.2149,113.6785,99.3779,260.7435,0.0010245,0.00016064,0.0,0 STARLINK-3707,1 52133U 22029AX  24228.41340636  .00016064  00000-0  10245-2 0  9995,2 52133  53.2149 113.6785 0001960  99.3779 260.7435 15.08860749134699,6917.817,95.436,541.038,538.326,0.0
52133.0,STARLINK-3707,PAYLOAD,2024-08-15 22:38:22,15.08869722,0.0002033,53.2143,111.3019,91.6912,268.4313,0.0012598,0.00019835,0.0,0 STARLINK-3707,1 52133U 22029AX  24228.94332020  .00019835  00000-0  12598-2 0  9993,2 52133  53.2143 111.3019 0002033  91.6912 268.4313 15.08869722134773,6917.79,95.436,541.061,538.248,0.0
52133.0,STARLINK-3707,PAYLOAD,2024-08-17 01:39:55,15.08866845,0.0001552,53.2151,106.2483,73.1458,286.9704,0.0014304,0.00022567,0.0,0 STARLINK-3707,1 52133U 22029AX  24230.06939390  .00022567  00000-0  14304-2 0  9995,2 52133  53.2151 106.2483 0001552  73.1458 286.9704 15.08866845134946,6917.798,95.436,540.737,538.59,0.0
52133.0,STARLINK-3707,PAYLOAD,2024-08-17 15:58:24,15.08834209,0.0001568,53.2158,103.5706,97.0026,263.1144,0.001641,0.00025921,0.0,0 STARLINK-3707,1 52133U 22029AX  24230.66555664  .00025921  00000-0  16410-2 0  9996,2 52133  53.2158 103.5706 0001568  97.0026 263.1144 15.08834209135039,6917.898,95.438,540.848,538.678,0.0
52133.0,STARLINK-3707,PAYLOAD,2024-08-18 01:30:42,15.08844949,0.0001704,53.2166,101.7852,73.9202,286.1977,0.00048105,7.377e-05,0.0,0 STARLINK-3707,1 52133U 22029AX  24231.06299767  .00007377  00000-0  48105-3 0  9992,2 52133  53.2166 101.7852 0001704  73.9202 286.1977 15.08844949135098,6917.865,95.437,540.909,538.551,0.0
52133.0,STARLINK-3707,PAYLOAD,2024-08-18 22:10:43,15.08853572,0.0001538,53.2167,97.9182,104.6278,255.4885,0.00048736,7.48e-05,0.0,0 STARLINK-3707,1 52133U 22029AX  24231.92411148  .00007480  00000-0  48736-3 0  9991,2 52133  53.2167  97.9182 0001538 104.6278 255.4885 15.08853572135225,6917.839,95.437,540.768,538.64,0.0
